{"type":"Feature","properties":{},"geometry":{"type":"MultiPolygon","coordinates":[[[[36.833,45.443],[37.139,45.336],[37.078,45.239],[37.319,45.272],[37.159,45.326],[37.519,45.369],[37.591,45.289],[37.6354,45.2932],[37.6332,45.2508],[37.94,46.02],[38.3661,46.2299],[38.123,46.378],[37.905,46.411],[37.731,46.67],[37.982,46.617],[38.272,46.732],[38.575,46.654],[38.513,46.732],[38.378,46.708],[38.415,46.833],[38.804,46.894],[39.075,47.033],[39.28,47.013],[39.389,47.115],[39.28,47.088],[39.264,47.261],[39.088,47.286],[38.847,47.164],[38.478,47.142],[38.81,47.288],[38.217,47.103],[38.203,47.192],[38.301,47.276],[38.191,47.317],[38.319,47.591],[38.735,47.677],[38.831,47.848],[39.759,47.833],[39.76,48.015],[39.993,48.273],[39.816,48.308],[39.924,48.376],[39.835,48.573],[39.632,48.587],[39.779,48.808],[39.975,48.79],[40.054,48.869],[39.759,48.895],[39.681,49.02],[39.919,49.048],[40.142,49.246],[40.16,49.334],[40.035,49.487],[40.131,49.58],[39.802,49.542],[39.558,49.724],[39.261,49.745],[39.156,49.874],[38.937,49.803],[38.665,49.965],[38.356,49.981],[38.3,50.061],[38.174,50.06],[38.166,49.941],[38.0,49.9],[37.597,50.197],[37.599,50.291],[37.415,50.432],[36.594,50.204],[36.41,50.305],[36.269,50.281],[36.106,50.421],[35.611,50.352],[35.378,50.622],[35.469,50.669],[35.285,50.944],[35.355,51.026],[35.144,51.058],[35.079,51.208],[34.675,51.168],[34.608,51.234],[34.186,51.249],[34.309,51.335],[34.186,51.394],[34.224,51.515],[34.089,51.667],[34.376,51.709],[34.413,51.778],[34.096,51.952],[34.065,52.159],[33.804,52.355],[33.51,52.288],[33.481,52.358],[33.183,52.367],[32.909,52.241],[32.394,52.327],[32.233,52.081],[31.91,52.029],[31.764,52.101],[30.919,52.059],[30.941,51.994],[30.742,51.898],[30.515,51.604],[30.646,51.367],[30.551,51.237],[30.149,51.484],[29.829,51.43],[29.638,51.491],[29.32,51.366],[29.16,51.603],[29.063,51.631],[28.8,51.533],[28.729,51.401],[28.604,51.554],[28.334,51.528],[28.21,51.652],[28.071,51.558],[27.831,51.613],[27.714,51.464],[27.693,51.589],[27.267,51.587],[27.151,51.757],[25.768,51.929],[24.391,51.88],[23.981,51.586],[23.629,51.629],[23.606,51.517],[23.532,51.659],[23.676,51.994],[23.637,52.084],[23.166,52.289],[23.392,52.51],[23.6955,52.6434],[23.7261,52.6443],[23.7718,52.677],[23.922,52.743],[23.9203,52.7679],[23.486,53.939],[25.763,54.156],[25.783,54.87],[26.801,55.273],[26.616,55.688],[28.2132,56.0988],[27.328,57.583],[27.799,57.861],[27.411,58.755],[28.182,59.356],[28.007,59.758],[30.246,59.975],[28.617,60.382],[28.69,60.738],[27.794,60.533],[31.57,62.906],[29.981,63.742],[30.558,64.22],[29.634,64.907],[29.703,65.629],[30.112,65.712],[29.052,66.908],[30.009,67.686],[28.448,68.53],[28.801,68.835],[28.41,68.899],[30.119,69.635],[32.054,69.964],[33.133,69.729],[32.112,69.753],[32.502,69.517],[32.194,69.435],[33.524,69.428],[33.235,69.27],[33.544,69.209],[33.061,69.083],[33.023,68.955],[33.064,69.058],[33.427,69.105],[33.724,69.337],[35.874,69.195],[41.04,67.678],[41.178,66.81],[38.554,66.055],[34.48,66.538],[32.93,67.1],[31.851,67.153],[34.852,65.9],[34.297,65.385],[35.009,64.743],[34.743,64.556],[37.534,63.801],[38.02,64.309],[36.44,64.917],[37.008,65.173],[38.385,64.845],[38.048,64.646],[40.517,64.541],[39.749,65.552],[42.201,66.532],[44.18,65.864],[44.522,66.919],[43.767,67.278],[44.412,68.063],[43.317,68.667],[46.535,68.133],[46.698,67.816],[44.912,67.372],[46.407,66.746],[47.581,66.87],[47.846,67.601],[49.107,67.639],[48.586,67.934],[52.402,68.338],[52.731,68.474],[52.328,68.633],[53.879,68.974],[54.561,69.0],[53.595,68.907],[54.026,68.845],[53.944,68.406],[53.211,68.269],[54.832,68.173],[58.879,69.003],[59.423,68.757],[59.087,68.417],[59.675,68.336],[60.969,68.907],[60.139,69.578],[60.927,69.867],[64.128,69.55],[68.288,68.188],[69.219,68.962],[68.458,68.985],[68.107,69.549],[67.017,69.703],[66.796,69.586],[67.334,70.758],[66.62,71.058],[68.349,71.675],[69.354,72.953],[71.563,72.916],[72.837,72.71],[72.874,72.281],[71.803,71.48],[72.837,70.86],[72.436,70.286],[72.577,68.94],[73.646,68.458],[73.091,68.214],[73.114,67.69],[71.302,66.954],[71.577,66.659],[68.965,66.81],[72.076,66.236],[74.73,67.686],[74.332,68.386],[74.628,68.775],[76.582,68.975],[77.326,68.523],[77.08,67.79],[77.693,67.545],[79.053,67.571],[77.494,67.751],[78.173,68.274],[77.647,68.911],[73.759,69.169],[73.516,69.746],[74.318,70.668],[73.022,71.429],[74.995,72.138],[74.751,72.82],[75.708,72.566],[75.263,71.366],[76.914,71.072],[78.411,70.895],[79.115,71.004],[75.997,71.908],[78.11,71.88],[77.377,72.11],[79.391,72.386],[83.252,71.726],[82.273,71.279],[82.082,70.565],[82.349,70.202],[82.157,70.572],[82.902,71.001],[82.644,70.181],[83.111,70.069],[82.952,70.325],[83.775,70.477],[83.116,71.113],[83.619,71.631],[80.704,72.545],[80.814,72.974],[80.231,73.176],[80.513,73.567],[87.08,73.872],[85.787,73.481],[85.833,73.332],[86.782,73.001],[85.844,73.44],[87.165,73.611],[87.664,73.891],[85.906,74.355],[87.262,74.355],[86.782,74.561],[85.74,74.636],[86.958,74.609],[87.79,75.026],[87.025,75.164],[94.163,75.944],[92.827,75.965],[93.999,76.054],[93.686,76.132],[96.461,75.872],[98.816,76.267],[99.755,76.049],[99.571,75.78],[99.866,76.108],[98.818,76.494],[102.25,76.383],[100.858,76.873],[103.197,77.659],[106.292,77.37],[104.142,77.089],[107.5,76.925],[106.417,76.509],[111.09,76.762],[113.89,75.854],[112.88,74.993],[109.561,74.314],[109.98,74.296],[107.147,73.618],[105.073,72.765],[110.925,73.704],[109.531,73.775],[110.021,74.014],[112.847,73.995],[113.428,73.634],[113.131,73.45],[113.498,73.336],[113.118,72.861],[113.177,72.733],[113.3457,72.7086],[114.036,73.347],[113.467,73.505],[115.413,73.71],[118.45,73.589],[118.998,73.491],[118.394,73.238],[119.723,72.959],[122.732,72.827],[122.308,72.941],[123.235,72.935],[123.671,73.203],[123.37,73.663],[124.383,73.806],[129.444,73.029],[128.129,72.786],[129.198,72.655],[127.905,72.667],[129.489,72.128],[127.666,72.43],[129.544,71.723],[128.82,71.658],[129.626,71.086],[131.042,70.739],[132.718,71.946],[134.669,71.264],[135.622,71.623],[137.813,71.12],[138.363,71.319],[137.829,71.387],[138.099,71.581],[140.033,71.472],[139.336,71.95],[140.197,72.214],[139.094,72.248],[141.111,72.587],[140.726,72.899],[146.854,72.354],[144.105,72.278],[144.416,72.175],[145.069,72.264],[146.929,72.313],[145.973,71.856],[146.347,72.128],[145.613,72.244],[145.806,71.929],[144.893,71.675],[146.036,71.786],[147.196,72.33],[149.611,72.148],[150.074,71.894],[148.827,71.675],[151.591,71.31],[152.541,70.791],[159.238,70.829],[160.094,70.31],[159.769,69.762],[161.006,69.577],[160.963,69.106],[161.415,68.982],[160.821,68.527],[161.574,68.921],[161.703,69.496],[164.027,69.774],[167.802,69.775],[168.288,69.243],[170.625,68.749],[171.159,69.044],[170.161,69.613],[170.592,69.765],[170.482,70.142],[176.128,69.894],[180.0,68.981],[180.0,65.066],[178.562,64.592],[176.937,65.083],[176.306,65.055],[177.3,64.823],[176.046,64.963],[174.442,64.692],[177.492,64.768],[179.563,62.625],[179.074,62.287],[176.992,62.869],[177.266,62.588],[172.716,61.431],[170.516,60.451],[170.265,59.92],[169.214,60.629],[167.025,60.428],[166.245,59.831],[166.373,60.499],[164.839,59.787],[163.629,60.047],[163.262,59.081],[161.993,58.087],[163.33,57.709],[162.784,56.763],[163.239,56.733],[163.366,56.181],[162.414,56.384],[161.764,55.555],[162.128,54.76],[160.053,54.176],[160.059,53.097],[158.438,53.025],[158.287,51.968],[156.67,50.864],[155.551,55.284],[155.947,56.622],[157.001,57.426],[156.749,57.73],[158.338,57.953],[161.939,60.417],[163.751,60.883],[164.127,62.262],[165.651,62.459],[163.399,62.576],[162.977,61.8],[163.327,61.658],[162.417,61.676],[160.186,60.578],[160.444,61.036],[159.776,61.242],[160.346,61.945],[157.028,61.651],[154.221,59.87],[154.138,59.457],[155.194,59.176],[151.354,58.833],[151.088,59.102],[152.322,59.207],[149.375,59.772],[148.935,59.233],[143.165,59.381],[135.469,55.057],[135.244,54.701],[136.883,54.591],[136.775,53.773],[137.061,54.146],[137.736,54.321],[137.335,53.529],[138.579,53.999],[138.439,53.514],[138.772,54.016],[138.644,54.297],[139.768,54.304],[141.407,53.304],[140.707,53.111],[141.556,52.162],[140.686,51.313],[140.177,48.462],[135.14,43.508],[133.158,42.688],[131.827,43.338],[131.22,42.555],[130.657,42.664],[130.704,42.295],[129.691,41.65],[129.717,40.835],[127.504,39.716],[127.393,39.202],[128.365,38.624],[128.04,38.304],[125.348,37.676],[124.667,38.126],[125.658,38.631],[125.137,38.804],[125.452,39.571],[124.637,39.59],[124.4114,40.0741],[121.18,38.721],[121.943,39.399],[121.223,39.529],[122.302,40.502],[121.868,40.996],[120.982,40.827],[118.926,39.131],[117.715,39.111],[117.716,38.379],[118.95,38.097],[119.146,37.179],[120.738,37.834],[122.688,37.41],[122.507,36.898],[120.097,36.226],[120.299,35.973],[119.193,35.0],[120.257,34.312],[120.83,32.698],[121.922,31.754],[119.613,32.355],[119.606,32.197],[120.006,31.95],[120.75,31.978],[121.951,30.982],[120.6313,30.3613],[122.129,29.904],[121.443,29.524],[121.971,29.593],[121.409,29.161],[121.621,28.736],[121.142,28.846],[121.656,28.339],[120.56,28.113],[120.868,27.883],[120.134,26.646],[119.552,26.749],[119.95,26.365],[119.4915,26.0303],[119.655,25.358],[119.305,25.605],[118.62,24.545],[118.16,24.693],[117.791,24.467],[118.126,24.262],[116.523,23.419],[116.495,22.939],[113.89,22.453],[113.529,23.011],[113.83,23.117],[113.417,23.097],[113.484,22.155],[113.165,22.576],[113.402,22.18],[112.912,21.856],[111.89,21.925],[110.431,21.191],[110.358,21.436],[110.157,20.849],[110.534,20.478],[110.28,20.253],[109.917,20.239],[109.594,21.746],[109.139,21.402],[108.573,21.952],[108.471,21.562],[107.348,21.599],[106.653,21.969],[106.79,22.797],[105.312,23.366],[103.96,22.507],[101.689,22.479],[101.756,21.143],[101.244,21.193],[101.083,21.767],[100.162,21.436],[99.942,22.046],[99.144,22.154],[99.538,22.926],[98.859,23.179],[98.866,24.146],[97.516,23.943],[97.801,25.238],[98.69,25.866],[98.679,27.577],[97.67,28.511],[96.302,28.421],[96.593,28.758],[96.142,29.368],[95.367,29.036],[94.6,29.317],[91.952,27.725],[89.916,28.316],[88.972,27.312],[88.61,28.106],[85.98,27.885],[82.089,30.33],[81.098,30.017],[78.745,31.308],[78.385,32.548],[79.621,32.729],[78.781,33.553],[78.976,34.309],[78.296,34.625],[78.044,35.492],[76.166,35.806],[75.85,36.645],[74.383,37.127],[75.164,37.401],[74.836,38.455],[73.816,38.587],[73.633,39.448],[74.835,40.512],[76.314,40.343],[76.861,41.013],[78.075,41.04],[80.231,42.034],[80.144,42.645],[80.793,43.149],[80.492,44.728],[79.858,44.904],[82.54,45.124],[82.291,45.533],[83.021,47.206],[85.499,47.052],[85.719,48.359],[87.4,49.071],[86.748,49.783],[85.224,49.596],[83.434,50.993],[81.46,50.73],[80.683,51.302],[80.021,50.767],[77.867,53.272],[76.495,53.992],[76.896,54.464],[73.411,53.43],[73.741,54.058],[71.161,54.102],[70.82,55.294],[68.927,55.434],[65.184,54.31],[60.996,53.941],[60.88,53.633],[61.555,53.506],[61.163,53.299],[62.094,52.992],[60.975,52.971],[60.673,52.672],[61.04,52.335],[59.986,51.952],[61.474,51.426],[61.372,50.782],[59.523,50.475],[58.308,51.15],[56.478,51.073],[55.66,50.53],[54.638,51.028],[54.499,50.523],[53.407,51.484],[50.767,51.759],[48.568,50.637],[48.785,49.933],[47.47,50.412],[46.478,48.411],[47.36,47.683],[48.174,47.713],[49.006,46.769],[48.455,46.661],[49.15,46.336],[48.716,45.814],[47.385,45.75],[46.68,44.528],[47.404,43.511],[47.702,43.874],[47.462,43.021],[48.579,41.845],[47.871,41.208],[45.699,42.508],[39.963,43.393],[37.4298,44.7408],[37.192,44.991],[36.577,45.194],[36.962,45.283],[36.789,45.292],[36.758,45.354],[36.848,45.367],[36.782,45.388],[36.668,45.326],[36.833,45.443]],[[28.29,56.047],[28.3003,56.0491],[28.2132,56.0988],[28.29,56.047]],[[113.391,72.681],[114.09,72.601],[113.3457,72.7086],[113.391,72.681]],[[124.896,40.484],[124.37,40.098],[124.4114,40.0741],[124.896,40.484]],[[120.622,30.373],[120.592,30.3723],[120.6313,30.3613],[120.622,30.373]],[[120.479,30.404],[120.4521,30.369],[120.592,30.3723],[120.479,30.404]],[[120.45,30.369],[120.4449,30.3597],[120.4521,30.369],[120.45,30.369]],[[120.258,30.298],[120.147,30.199],[120.385,30.25],[120.4449,30.3597],[120.258,30.298]],[[119.4276,25.9961],[119.459,25.982],[119.4915,26.0303],[119.4276,25.9961]],[[119.2316,26.0842],[119.094,26.146],[119.258,26.001],[119.33,25.944],[119.405,25.978],[119.4276,25.9961],[119.2316,26.0842]],[[29.9346,52.5002],[29.8757,52.4724],[29.9103,52.4772],[29.9136,52.4774],[29.9346,52.5002]],[[31.3265,53.1151],[31.247,53.014],[31.3394,53.1157],[31.3798,53.1175],[31.4716,53.1178],[31.594,53.1107],[31.6931,53.0988],[31.6945,53.0988],[31.7274,53.1003],[31.7877,53.1461],[31.7952,53.1507],[31.8964,53.1376],[31.8098,53.1598],[31.8683,53.196],[31.9423,53.2325],[31.416,53.2],[31.2079,53.1017],[31.217,53.1036],[31.2981,53.1139],[31.3265,53.1151]],[[32.117,53.081],[32.1696,53.1021],[31.8964,53.1376],[32.117,53.081]],[[32.201,53.098],[32.424,53.204],[32.1696,53.1021],[32.201,53.098]],[[32.7753,53.284],[32.7824,53.2821],[32.7888,53.2849],[32.7753,53.284]],[[35.3256,52.1847],[35.3305,52.1746],[35.3423,52.1711],[35.3256,52.1847]],[[36.5485,51.3213],[36.604,51.2927],[36.6197,51.2972],[36.6852,51.3126],[36.6939,51.3142],[36.3632,51.3866],[36.4334,51.3659],[36.4608,51.3564],[36.5485,51.3213]],[[39.3492,46.833],[39.2795,46.8407],[39.1972,46.7926],[39.1785,46.7841],[39.1673,46.762],[39.1371,46.7143],[39.1034,46.6412],[39.0639,46.5736],[39.5797,46.8277],[39.4933,46.8261],[39.4135,46.832],[39.3492,46.833]],[[28.311,56.043],[28.5606,56.0804],[28.538,56.098],[28.311,56.043]],[[28.732,55.947],[28.611,56.088],[28.5606,56.0804],[28.732,55.947]],[[58.285,68.8],[58.424,68.743],[58.2812,68.8254],[58.285,68.8]],[[113.4267,75.5404],[113.426,75.54],[113.4324,75.54],[113.4267,75.5404]],[[112.337,75.848],[112.814,75.557],[113.617,75.656],[113.068,75.683],[112.337,75.848]],[[150.047,71.21],[150.515,71.346],[150.5183,71.3491],[150.047,71.21]],[[130.531,42.53],[130.6821,42.3248],[130.5427,42.5563],[130.517,42.599],[130.531,42.53]],[[130.501,42.611],[130.453,42.549],[130.508,42.592],[130.501,42.611]],[[120.347,27.243],[120.3203,27.2388],[120.3554,27.2323],[120.347,27.243]],[[120.312,27.318],[120.182,27.217],[120.3203,27.2388],[120.312,27.318]],[[115.5447,22.857],[115.561,22.849],[115.5853,22.8612],[115.5447,22.857]],[[115.406,22.925],[115.468,22.849],[115.5447,22.857],[115.406,22.925]],[[112.397,22.069],[112.391,21.956],[112.3991,21.9568],[112.397,22.069]],[[110.76,21.445],[110.636,21.381],[110.636,21.37],[110.76,21.445]],[[30.8887,55.5819],[30.918,55.388],[30.913,55.572],[30.8887,55.5819]],[[30.886,55.6],[30.8481,55.5984],[30.8887,55.5819],[30.886,55.6]],[[30.5956,55.7012],[30.742,55.594],[30.8481,55.5984],[30.5956,55.7012]],[[30.469,55.794],[30.2256,55.8519],[30.5956,55.7012],[30.469,55.794]],[[30.218,55.855],[30.2134,55.8548],[30.2256,55.8519],[30.218,55.855]],[[30.2,55.858],[29.908,55.843],[30.2134,55.8548],[30.2,55.858]],[[29.3578,55.7763],[29.351,55.766],[29.481,55.681],[29.3578,55.7763]],[[29.444,55.907],[29.344,55.787],[29.3578,55.7763],[29.444,55.907]],[[29.396,55.948],[29.3811,55.9511],[29.444,55.907],[29.396,55.948]],[[29.377,55.954],[29.031,56.024],[29.3811,55.9511],[29.377,55.954]],[[97.806,51.001],[98.262,50.284],[97.343,49.734],[94.603,50.02],[94.259,50.558],[92.361,50.868],[88.2,49.454],[87.738,48.869],[90.345,47.659],[91.047,46.566],[90.873,45.186],[95.398,44.281],[96.358,42.724],[101.525,42.537],[104.974,41.586],[106.768,42.287],[110.407,42.769],[111.933,43.697],[111.397,44.387],[111.958,45.085],[113.605,44.74],[117.394,46.571],[119.854,46.66],[118.542,47.966],[115.576,47.91],[116.6977,49.8193],[116.218,50.014],[114.286,50.277],[110.731,49.138],[106.657,50.327],[103.277,50.198],[102.303,50.564],[102.075,51.375],[98.928,52.13],[97.806,51.001]],[[117.058,49.673],[117.6894,49.5492],[116.6977,49.8193],[117.058,49.673]],[[117.837,49.509],[117.852,49.5173],[117.6894,49.5492],[117.837,49.509]],[[117.874,49.513],[118.644,49.955],[117.852,49.5173],[117.874,49.513]],[[120.6845,51.9686],[120.1,51.66],[120.648,51.911],[120.6845,51.9686]],[[120.706,51.98],[120.7383,52.0536],[120.6845,51.9686],[120.706,51.98]],[[120.779,52.118],[120.7714,52.1293],[120.7383,52.0536],[120.779,52.118]],[[120.784,52.158],[120.626,52.347],[120.7714,52.1293],[120.784,52.158]],[[130.4246,42.723],[130.38,42.697],[130.572,42.622],[130.4246,42.723]],[[130.4743,42.7519],[130.407,42.735],[130.4246,42.723],[130.4743,42.7519]],[[131.103,42.91],[130.586,42.817],[130.4743,42.7519],[131.103,42.91]],[[130.1046,42.9372],[130.099,42.922],[130.239,42.902],[130.1046,42.9372]],[[130.121,42.982],[129.88,42.996],[130.1046,42.9372],[130.121,42.982]],[[131.5039,47.7054],[131.603,47.662],[132.525,47.708],[131.5039,47.7054]],[[131.418,47.743],[131.1688,47.7045],[131.5039,47.7054],[131.418,47.743]],[[130.9735,47.704],[131.023,47.682],[131.1688,47.7045],[130.9735,47.704]],[[130.9647,47.7079],[130.966,47.704],[130.9735,47.704],[130.9647,47.7079]],[[130.907,47.884],[130.942,47.718],[130.9647,47.7079],[130.907,47.884]],[[130.8192,48.3082],[130.675,48.064],[130.824,48.294],[130.8192,48.3082]],[[130.825,48.318],[130.759,48.486],[130.8192,48.3082],[130.825,48.318]]],[[[37.6183,45.5508],[37.6186,45.549],[37.586,45.432],[37.595,45.635],[37.5967,45.6348],[37.6183,45.5508]]],[[[20.531,54.965],[21.091,54.902],[21.375,55.29],[22.581,55.058],[22.767,54.356],[19.61,54.457],[19.977,54.965],[20.925,55.283],[20.531,54.965]]],[[[-173.646,67.116],[-173.303,66.822],[-171.719,66.951],[-169.641,66.068],[-170.588,65.605],[-171.463,65.833],[-171.039,65.467],[-172.86,65.7],[-172.093,65.484],[-172.702,65.248],[-172.08,65.076],[-173.164,64.765],[-172.22,64.407],[-173.106,64.241],[-175.411,64.771],[-176.044,65.452],[-178.461,65.473],[-178.978,66.049],[-178.684,66.013],[-178.477,66.383],[-179.693,66.184],[-179.261,65.532],[-180.0,65.066],[-180.0,68.982],[-174.756,67.303],[-174.971,66.665],[-174.463,66.28],[-173.691,66.439],[-174.612,67.061],[-173.646,67.116]]],[[[53.3,70.866],[54.244,71.123],[53.451,71.264],[53.951,71.462],[51.532,71.566],[51.61,72.092],[53.218,72.648],[52.375,72.73],[53.382,72.889],[53.122,73.101],[56.435,73.23],[55.116,72.45],[55.575,72.2],[55.225,71.929],[57.639,70.73],[55.163,70.553],[53.3,70.866]]],[[[58.187,74.581],[58.728,74.239],[57.261,74.08],[57.749,73.726],[57.395,73.846],[56.556,73.889],[57.618,73.669],[56.735,73.68],[57.254,73.457],[56.73,73.245],[54.25,73.328],[55.35,73.717],[53.631,73.76],[56.287,74.492],[55.53,74.655],[56.987,74.69],[55.833,74.8],[56.678,74.949],[55.726,75.081],[56.071,75.219],[60.348,76.006],[60.043,76.054],[67.588,77.013],[69.034,76.712],[68.288,76.281],[61.277,75.328],[59.146,74.444],[58.187,74.581]],[[63.552,75.711],[63.6164,75.6898],[63.62,75.691],[63.552,75.711]]],[[[48.955,80.735],[51.744,80.714],[48.372,80.092],[46.618,80.295],[49.407,80.617],[48.955,80.735]]],[[[110.678,20.164],[111.011,19.684],[109.561,18.169],[108.685,18.515],[109.008,19.597],[110.678,20.164]]],[[[143.626,46.375],[143.431,46.025],[143.369,46.555],[142.618,46.719],[142.085,45.901],[141.857,48.774],[142.269,51.112],[141.642,52.318],[141.769,53.372],[142.804,53.707],[142.283,54.304],[143.013,54.119],[143.379,51.35],[144.757,48.643],[144.058,49.253],[143.259,49.393],[143.667,49.315],[143.009,49.123],[142.545,47.767],[143.626,46.375]]],[[[142.045,73.917],[143.537,73.444],[143.175,73.177],[139.767,73.418],[142.045,73.917]]],[[[149.209,74.758],[146.072,75.24],[146.436,75.597],[150.958,75.142],[149.209,74.758]]],[[[137.433,75.953],[138.432,76.063],[138.533,76.186],[139.049,76.239],[140.476,75.64],[141.625,76.013],[141.31,76.184],[145.366,75.54],[143.999,75.025],[142.884,75.147],[142.494,75.376],[143.001,75.708],[142.338,75.726],[142.008,75.623],[142.439,75.203],[143.708,74.947],[139.127,74.652],[136.862,75.362],[137.422,75.37],[137.068,75.726],[137.743,75.749],[137.433,75.953]]],[[[102.303,79.433],[103.153,79.31],[102.379,78.822],[103.624,79.171],[105.416,78.583],[99.268,78.042],[102.303,79.433]]],[[[99.406,78.822],[92.854,79.556],[94.952,80.104],[98.09,80.056],[97.192,79.707],[98.557,80.059],[100.077,79.783],[99.035,79.296],[99.926,78.946],[99.406,78.822]]],[[[91.422,80.31],[92.628,80.392],[91.888,80.46],[92.769,80.517],[93.27,80.797],[92.497,80.776],[93.053,80.995],[95.547,81.221],[95.034,81.249],[95.777,81.289],[97.973,80.721],[97.131,80.666],[97.188,80.234],[94.53,80.131],[93.75,79.997],[91.422,80.31]]]]}}
